NORAD_CAT_ID,OBJECT_NAME,OBJECT_TYPE,EPOCH,MEAN_MOTION,ECCENTRICITY,INCLINATION,RA_OF_ASC_NODE,ARG_OF_PERICENTER,MEAN_ANOMALY,BSTAR,MEAN_MOTION_DOT,MEAN_MOTION_DDOT,TLE_LINE0,TLE_LINE1,TLE_LINE2,SEMIMAJOR_AXIS,PERIOD,APOGEE,PERIGEE,DECAYED
49728.0,STARLINK-3240,PAYLOAD,2023-02-24 02:42:02,15.08842389,0.0001294,53.2142,100.2026,89.1932,270.9209,0.00074099,0.00011525,0.0,0 STARLINK-3240,1 49728U 21115E   23055.11252906  .00011525  00000-0  74099-3 0  9997,2 49728  53.2142 100.2026 0001294  89.1932 270.9209 15.08842389 68997,6917.873,95.437,540.633,538.843,0.0
49728.0,STARLINK-3240,PAYLOAD,2023-02-24 07:28:11,15.08846474,0.0001395,53.2147,99.3111,85.3715,274.7436,0.00067476,0.00010469,0.0,0 STARLINK-3240,1 49728U 21115E   23055.31124826  .00010469  00000-0  67476-3 0  9995,2 49728  53.2147  99.3111 0001395  85.3715 274.7436 15.08846474 67918,6917.861,95.437,540.691,538.761,0.0
49728.0,STARLINK-3240,PAYLOAD,2023-02-24 20:11:16,15.08845695,0.0001386,53.2156,96.9332,79.6867,280.4281,0.0003686,5.584e-05,0.0,0 STARLINK-3240,1 49728U 21115E   23055.84116773  .00005584  00000-0  36860-3 0  9990,2 49728  53.2156  96.9332 0001386  79.6867 280.4281 15.08845695 67994,6917.863,95.437,540.687,538.769,0.0
49728.0,STARLINK-3240,PAYLOAD,2023-02-25 02:32:49,15.08839905,0.0001616,53.215,95.7438,91.7266,268.3912,0.0001886,2.715e-05,0.0,0 STARLINK-3240,1 49728U 21115E   23056.10612995  .00002715  00000-0  18860-3 0  9990,2 49728  53.2150  95.7438 0001616  91.7266 268.3912 15.08839905 69148,6917.881,95.438,540.864,538.628,0.0
49728.0,STARLINK-3240,PAYLOAD,2023-02-25 20:02:04,15.08838816,0.0001649,53.2159,92.4695,104.8659,255.2515,0.00016647,2.362e-05,0.0,0 STARLINK-3240,1 49728U 21115E   23056.83477286  .00002362  00000-0  16647-3 0  9991,2 49728  53.2159  92.4695 0001649 104.8659 255.2515 15.08838816 68147,6917.884,95.438,540.89,538.608,0.0
49728.0,STARLINK-3240,PAYLOAD,2023-02-26 11:55:54,15.08860206,0.0001317,53.2152,89.4967,107.8198,252.2938,0.00049686,7.633e-05,0.0,0 STARLINK-3240,1 49728U 21115E   23057.49716253  .00007633  00000-0  49686-3 0  9999,2 49728  53.2152  89.4967 0001317 107.8198 252.2938 15.08860206 69359,6917.819,95.436,540.595,538.773,0.0
49728.0,STARLINK-3240,PAYLOAD,2023-02-27 02:14:23,15.08832372,0.0001023,53.2161,86.8204,84.1489,275.9619,-8.1061e-05,-1.577e-05,0.0,0 STARLINK-3240,1 49728U 21115E   23058.09333189 -.00001577  00000-0 -81061-4 0  9996,2 49728  53.2161  86.8204 0001023  84.1489 275.9619 15.08832372 69449,6917.904,95.438,540.476,539.061,0.0
49728.0,STARLINK-3240,PAYLOAD,2023-02-27 11:46:42,15.08855673,0.0001377,53.2163,85.0371,91.1571,268.9579,0.00044655,6.829e-05,0.0,0 STARLINK-3240,1 49728U 21115E   23058.49076607  .00006829  00000-0  44655-3 0  9999,2 49728  53.2163  85.0371 0001377  91.1571 268.9579 15.08855673 69502,6917.832,95.437,540.65,538.745,0.0
49728.0,STARLINK-3240,PAYLOAD,2023-02-27 18:08:14,15.08860672,0.0001545,53.2165,83.8472,82.4304,277.6864,0.0013179,0.0002076,0.0,0 STARLINK-3240,1 49728U 21115E   23058.75572720  .00020760  00000-0  13179-2 0  9991,2 49728  53.2165  83.8472 0001545  82.4304 277.6864 15.08860672 68436,6917.817,95.436,540.751,538.613,0.0
49728.0,STARLINK-3240,PAYLOAD,2023-02-28 11:37:27,15.08893604,0.0001126,53.2168,80.5769,84.7092,275.4028,0.0021467,0.00034092,0.0,0 STARLINK-3240,1 49728U 21115E   23059.48435148  .00034092  00000-0  21467-2 0  9996,2 49728  53.2168  80.5769 0001126  84.7092 275.4028 15.08893604 69650,6917.717,95.434,540.36,538.803,0.0
49728.0,STARLINK-3240,PAYLOAD,2023-02-28 17:59:01,15.08840167,0.0001555,53.217,79.3869,87.7899,272.3271,-0.00045614,-7.54e-05,0.0,0 STARLINK-3240,1 49728U 21115E   23059.74931945 -.00007540  00000-0 -45614-3 0  9992,2 49728  53.2170  79.3869 0001555  87.7899 272.3271 15.08840167 68587,6917.88,95.438,540.821,538.669,0.0
49728.0,STARLINK-3240,PAYLOAD,2023-03-01 00:20:34,15.08815313,0.0002383,53.217,78.1973,86.5388,273.5877,-0.00062633,-0.00010236,0.0,0 STARLINK-3240,1 49728U 21115E   23060.01428885 -.00010236  00000-0 -62633-3 0  9994,2 49728  53.2170  78.1973 0002383  86.5388 273.5877 15.08815313 69738,6917.956,95.439,541.469,538.172,0.0
49728.0,STARLINK-3240,PAYLOAD,2023-03-01 06:42:07,15.08793892,0.0001046,53.2169,77.0089,111.6642,248.4462,0.00082459,0.00012843,0.0,0 STARLINK-3240,1 49728U 21115E   23060.27925806  .00012843  00000-0  82459-3 0  9999,2 49728  53.2169  77.0089 0001046 111.6642 248.4462 15.08793892 69772,6918.021,95.44,540.61,539.163,0.0
49728.0,STARLINK-3240,PAYLOAD,2023-03-01 17:49:50,15.08810145,0.0001042,53.2165,74.9273,113.6678,246.4423,0.0014291,0.00022511,0.0,0 STARLINK-3240,1 49728U 21115E   23060.74294987  .00022511  00000-0  14291-2 0  9991,2 49728  53.2165  74.9273 0001042 113.6678 246.4423 15.08810145 68737,6917.972,95.439,540.557,539.116,0.0
49728.0,STARLINK-3240,PAYLOAD,2023-03-02 01:46:46,15.08826367,0.0001026,53.2164,73.4402,116.9077,243.202,0.0013962,0.00021994,0.0,0 STARLINK-3240,1 49728U 21115E   23061.07415382  .00021994  00000-0  13962-2 0  9990,2 49728  53.2164  73.4402 0001026 116.9077 243.2020 15.08826367 69894,6917.922,95.438,540.497,539.077,0.0
49728.0,STARLINK-3240,PAYLOAD,2023-03-02 17:40:38,15.0885971,0.0001078,53.2164,70.4669,117.5418,242.5684,0.0015656,0.0002473,0.0,0 STARLINK-3240,1 49728U 21115E   23061.73655180  .00024730  00000-0  15656-2 0  9998,2 49728  53.2164  70.4669 0001078 117.5418 242.5684 15.08859710 68883,6917.82,95.436,540.431,538.939,0.0
49728.0,STARLINK-3240,PAYLOAD,2023-03-03 07:59:05,15.08897109,0.0001112,53.2162,67.7906,117.0961,243.0145,0.0021312,0.00033846,0.0,0 STARLINK-3240,1 49728U 21115E   23062.33269700  .00033846  00000-0  21312-2 0  9998,2 49728  53.2162  67.7906 0001112 117.0961 243.0145 15.08897109 70088,6917.706,95.434,540.34,538.802,0.0
49728.0,STARLINK-3240,PAYLOAD,2023-03-03 09:34:27,15.08899689,0.0001081,53.2161,67.4933,116.6696,243.4407,0.0020601,0.00032705,0.0,0 STARLINK-3240,1 49728U 21115E   23062.39893460  .00032705  00000-0  20601-2 0  9993,2 49728  53.2161  67.4933 0001081 116.6696 243.4407 15.08899689 68985,6917.698,95.434,540.311,538.815,0.0
49728.0,STARLINK-3240,PAYLOAD,2023-03-03 17:31:23,15.0887741,0.0001278,53.2162,66.0061,95.4252,264.6886,0.0011218,0.00017629,0.0,0 STARLINK-3240,1 49728U 21115E   23062.73013381  .00017629  00000-0  11218-2 0  9999,2 49728  53.2162  66.0061 0001278  95.4252 264.6886 15.08877410 70148,6917.766,95.435,540.515,538.747,0.0
49728.0,STARLINK-3240,PAYLOAD,2023-03-03 23:52:55,15.0886309,0.0001226,53.2164,64.8166,102.1625,257.9504,0.00094767,0.00014836,0.0,0 STARLINK-3240,1 49728U 21115E   23062.99509250  .00014836  00000-0  94767-3 0  9990,2 49728  53.2164  64.8166 0001226 102.1625 257.9504 15.08863090 70180,6917.81,95.436,540.523,538.827,0.0
49728.0,STARLINK-3240,PAYLOAD,2023-03-04 06:14:28,15.08866504,9.4e-05,53.2166,63.6278,105.0468,255.0628,0.0017685,0.0002799,0.0,0 STARLINK-3240,1 49728U 21115E   23063.26004908  .00027990  00000-0  17685-2 0  9999,2 49728  53.2166  63.6278 0000940 105.0468 255.0628 15.08866504 69112,6917.799,95.436,540.315,539.014,0.0
49728.0,STARLINK-3240,PAYLOAD,2023-03-04 17:22:10,15.0885936,0.000185,53.2166,61.546,72.0028,288.1165,0.00174,0.00027528,0.0,0 STARLINK-3240,1 49728U 21115E   23063.72373348  .00027528  00000-0  17400-2 0  9999,2 49728  53.2166  61.5460 0001850  72.0028 288.1165 15.08859360 70294,6917.821,95.436,540.966,538.406,0.0
49728.0,STARLINK-3240,PAYLOAD,2023-03-05 09:16:02,15.08844101,0.0001423,53.2167,58.5713,84.0277,276.0878,0.0018957,0.00030014,0.0,0 STARLINK-3240,1 49728U 21115E   23064.38613723  .00030014  00000-0  18957-2 0  9998,2 49728  53.2167  58.5713 0001423  84.0277 276.0878 15.08844101 70392,6917.868,95.437,540.717,538.748,0.0
49728.0,STARLINK-3240,PAYLOAD,2023-03-06 02:45:16,15.08856836,0.0001163,53.2176,55.3012,80.0796,280.0328,0.0015622,0.00024673,0.0,0 STARLINK-3240,1 49728U 21115E   23065.11477746  .00024673  00000-0  15622-2 0  9993,2 49728  53.2176  55.3012 0001163  80.0796 280.0328 15.08856836 70508,6917.829,95.436,540.498,538.889,0.0
49728.0,STARLINK-3240,PAYLOAD,2023-03-06 10:42:11,15.08874166,0.0001618,53.2182,53.8094,97.0745,263.0431,0.0013301,0.00020964,0.0,0 STARLINK-3240,1 49728U 21115E   23065.44596924  .00020964  00000-0  13301-2 0  9990,2 49728  53.2182  53.8094 0001618  97.0745 263.0431 15.08874166 69448,6917.776,95.435,540.76,538.522,0.0
49728.0,STARLINK-3240,PAYLOAD,2023-03-07 05:46:49,15.08847656,0.0001014,53.218,50.2485,113.8189,246.2909,0.00061987,9.593e-05,0.0,0 STARLINK-3240,1 49728U 21115E   23066.24085598  .00009593  00000-0  61987-3 0  9998,2 49728  53.2180  50.2485 0001014 113.8189 246.2909 15.08847656 70674,6917.857,95.437,540.423,539.021,0.0
49728.0,STARLINK-3240,PAYLOAD,2023-03-07 21:40:41,15.08846916,0.0001737,53.2177,47.2714,100.7005,259.4183,0.00147,0.00023189,0.0,0 STARLINK-3240,1 49728U 21115E   23066.90326118  .00023189  00000-0  14700-2 0  9994,2 49728  53.2177  47.2714 0001737 100.7005 259.4183 15.08846916 69660,6917.859,95.437,540.926,538.523,0.0
49728.0,STARLINK-3240,PAYLOAD,2023-03-08 02:26:51,15.08841276,0.0001328,53.2189,46.3803,99.4288,260.6854,0.00027433,4.081e-05,0.0,0 STARLINK-3240,1 49728U 21115E   23067.10198258  .00004081  00000-0  27433-3 0  9997,2 49728  53.2189  46.3803 0001328  99.4288 260.6854 15.08841276 70806,6917.876,95.437,540.66,538.823,0.0
49728.0,STARLINK-3240,PAYLOAD,2023-03-08 08:48:23,15.0886311,7.92e-05,53.2177,45.1909,74.9282,285.1797,0.0023531,0.00037384,0.0,0 STARLINK-3240,1 49728U 21115E   23067.36694034  .00037384  00000-0  23531-2 0  9994,2 49728  53.2177  45.1909 0000792  74.9282 285.1797 15.08863110 70846,6917.81,95.436,540.223,539.127,0.0
49728.0,STARLINK-3240,PAYLOAD,2023-03-08 15:09:56,15.08856933,0.0001355,53.2174,43.9989,80.7054,279.4091,0.0016713,0.00026423,0.0,0 STARLINK-3240,1 49728U 21115E   23067.63190380  .00026423  00000-0  16713-2 0  9995,2 49728  53.2174  43.9989 0001355  80.7054 279.4091 15.08856933 70887,6917.829,95.436,540.631,538.756,0.0
